1 41960U 17008N   21079.45001353  .00004609  00000-0  16499-3 0  9997
2 41960  97.3298 149.5527 0008350  43.7014 316.4886 15.29238736227674
1 41960U 17008N   21079.71174928  .00005887  00000-0  20993-3 0  9998
2 41960  97.3298 149.8106 0008332  42.7425 317.4462 15.29244657227710
1 41960U 17008N   21080.16978536  .00006361  00000-0  22656-3 0  9992
2 41960  97.3297 150.2621 0008286  41.3247 318.8619 15.29251330227784
1 41960U 17008N   21080.75868652  .00006980  00000-0  24827-3 0  9993
2 41960  97.3298 150.8426 0008239  39.5164 320.6676 15.29260108227876
1 41960U 17008N   21081.15128483  .00007273  00000-0  25853-3 0  9995
2 41960  97.3298 151.2296 0008209  38.3388 321.8434 15.29266834227932
1 41960U 17008N   21081.67474699  .00007283  00000-0  25881-3 0  9997
2 41960  97.3298 151.7456 0008151  36.6727 323.5070 15.29275270228018
1 41960U 17008N   21082.45993619  .00005977  00000-0  21287-3 0  9996
2 41960  97.3297 152.5194 0008063  34.0836 326.0921 15.29283912228138
1 41960U 17008N   21082.72166495  .00005916  00000-0  21069-3 0  9991
2 41960  97.3297 152.7772 0008023  33.1601 327.0141 15.29287207228178
1 41960U 17008N   21083.17968897  .00005948  00000-0  21178-3 0  9993
2 41960  97.3297 153.2288 0007964  31.6175 328.5543 15.29292605228246
1 41960U 17008N   21083.57227975  .00006005  00000-0  21375-3 0  9996
2 41960  97.3298 153.6157 0007929  30.3217 329.8481 15.29297230228301
1 41960U 17008N   21084.09573247  .00006091  00000-0  21676-3 0  9999
2 41960  97.3298 154.1315 0007883  28.6184 331.5487 15.29303318228384
1 41960U 17008N   21084.16116388  .00006140  00000-0  21847-3 0  9991
2 41960  97.3298 154.1960 0007876  28.4178 331.7490 15.29304216228398
1 41960U 17008N   21084.61918287  .00006599  00000-0  23454-3 0  9993
2 41960  97.3297 154.6474 0007838  27.0243 333.1404 15.29310375228460
1 41960U 17008N   21085.01176900  .00006684  00000-0  23751-3 0  9991
2 41960  97.3297 155.0344 0007797  25.7543 334.4084 15.29315430228525
1 41960U 17008N   21085.66607627  .00007110  00000-0  25240-3 0  9997
2 41960  97.3295 155.6792 0007722  23.4851 336.6740 15.29324657228626
1 41960U 17008N   21085.92779808  .00007228  00000-0  25650-3 0  9992
2 41960  97.3294 155.9372 0007683  22.6198 337.5380 15.29328295228669
1 41960U 17008N   21086.12408885  .00007333  00000-0  26017-3 0  9994
2 41960  97.3294 156.1306 0007665  21.9013 338.2554 15.29331467228696
1 41960U 17008N   21086.71296056  .00006250  00000-0  22212-3 0  9994
2 41960  97.3292 156.7110 0007602  19.8038 340.3496 15.29336674228781
1 41960U 17008N   21086.90925063  .00005956  00000-0  21178-3 0  9994
2 41960  97.3292 156.9044 0007578  19.1872 340.9653 15.29338296228817
1 41960U 17008N   21087.43268902  .00005899  00000-0  20976-3 0  9996
2 41960  97.3290 157.4203 0007531  17.4178 342.7319 15.29344301228898
1 41960U 17008N   21087.75983739  .00005406  00000-0  19245-3 0  9994
2 41960  97.3290 157.7427 0007496  16.2787 343.8693 15.29346867228944
1 41960U 17008N   21088.15241430  .00005726  00000-0  20363-3 0  9992
2 41960  97.3288 158.1296 0007461  14.9570 345.1890 15.29351595229003
1 41960U 17008N   21088.74127864  .00004495  00000-0  16042-3 0  9992
2 41960  97.3285 158.7100 0007389  12.8918 347.2510 15.29354353229098
1 41960U 17008N   21089.13385332  .00004782  00000-0  17049-3 0  9999
2 41960  97.3283 159.0968 0007339  11.4026 348.7380 15.29358733229156
1 41960U 17008N   21089.65728505  .00004858  00000-0  17311-3 0  9995
2 41960  97.3282 159.6127 0007274   9.4856 350.6521 15.29363771229230
1 41960U 17008N   21090.18071563  .00004286  00000-0  15305-3 0  9996
2 41960  97.3279 160.1286 0007225   7.5505 352.5843 15.29366851229314
1 41960U 17008N   21091.16214279  .00005211  00000-0  18545-3 0  9996
2 41960  97.3277 161.0959 0007124   4.1909 355.9389 15.29377961229460
1 41960U 17008N   21091.62014030  .00005302  00000-0  18860-3 0  9991
2 41960  97.3276 161.5473 0007072   2.6215 357.5061 15.29382287229530
1 41960U 17008N   21092.47070369  .00004797  00000-0  17085-3 0  9997
2 41960  97.3274 162.3856 0006977 359.6296   0.4938 15.29388865229668
1 41960U 17008N   21092.73241475  .00004624  00000-0  16478-3 0  9998
2 41960  97.3273 162.6435 0006952 358.5608   1.5612 15.29390877229703
1 41960U 17008N   21093.45211727  .00004960  00000-0  17652-3 0  9993
2 41960  97.3273 163.3528 0006865 355.7677   4.3504 15.29398507229813
1 41960U 17008N   21093.64839944  .00004675  00000-0  16654-3 0  9995
2 41960  97.3273 163.5463 0006840 354.9764   5.1406 15.29399712229846
1 41960U 17008N   21094.10639024  .00004258  00000-0  15190-3 0  9995
2 41960  97.3273 163.9977 0006795 353.2486   6.8662 15.29402802229917
1 41960U 17008N   21094.43352582  .00004107  00000-0  14662-3 0  9998
2 41960  97.3274 164.3201 0006755 352.0524   8.0608 15.29405289229960
1 41960U 17008N   21094.69523398  .00003976  00000-0  14200-3 0  9992
2 41960  97.3274 164.5781 0006728 351.0104   9.1015 15.29407219230004
1 41960U 17008N   21095.15322241  .00003851  00000-0  13761-3 0  9991
2 41960  97.3274 165.0294 0006681 349.3277  10.7820 15.29410585230077
1 41960U 17008N   21095.74206350  .00003550  00000-0  12706-3 0  9992
2 41960  97.3274 165.6098 0006616 347.1096  12.9974 15.29414180230167
1 41960U 17008N   21096.13462306  .00003720  00000-0  13298-3 0  9997
2 41960  97.3274 165.9967 0006579 345.4871  14.6179 15.29417441230221
1 41960U 17008N   21096.20004949  .00003763  00000-0  13448-3 0  9994
2 41960  97.3274 166.0612 0006580 345.1931  14.9116 15.29418126230232
1 41960U 17008N   21096.65803486  .00003401  00000-0  12180-3 0  9997
2 41960  97.3274 166.5125 0006529 343.3873  16.7153 15.29420593230304
1 41960U 17008N   21097.18144526  .00003524  00000-0  12609-3 0  9991
2 41960  97.3274 167.0284 0006488 341.1917  18.9083 15.29424694230385
1 41960U 17008N   21097.44315000  .00003584  00000-0  12819-3 0  9996
2 41960  97.3275 167.2863 0006451 340.1370  19.9618 15.29426707230420
1 41960U 17008N   21098.16283544  .00004929  00000-0  17527-3 0  9998
2 41960  97.3274 167.9955 0006384 337.3213  22.7744 15.29435929230537
1 41960U 17008N   21098.62081598  .00004354  00000-0  15510-3 0  9996
2 41960  97.3275 168.4467 0006324 335.5084  24.5855 15.29438280230606
1 41960U 17008N   21099.47134808  .00004171  00000-0  14867-3 0  9994
2 41960  97.3273 169.2849 0006245 332.0404  28.0500 15.29444749230734
1 41960U 17008N   21099.66762442  .00003767  00000-0  13455-3 0  9998
2 41960  97.3273 169.4783 0006221 331.0949  28.9946 15.29445353230768
1 41960U 17008N   21100.45272739  .00003505  00000-0  12535-3 0  9991
2 41960  97.3268 170.2518 0006169 327.7507  32.3355 15.29450623230883
1 41960U 17008N   21100.64900285  .00003407  00000-0  12191-3 0  9995
2 41960  97.3268 170.4453 0006156 326.8267  33.2587 15.29451818230910
1 41960U 17008N   21101.17240284  .00003698  00000-0  13207-3 0  9991
2 41960  97.3268 170.9611 0006123 324.6236  35.4597 15.29456184230991
1 41960U 17008N   21101.76122648  .00004096  00000-0  14597-3 0  9995
2 41960  97.3266 171.5414 0006060 322.1924  37.8890 15.29461128231081
1 41960U 17008N   21102.41547293  .00003716  00000-0  13268-3 0  9997
2 41960  97.3265 172.1860 0006003 319.4135  40.6658 15.29464869231182
1 41960U 17008N   21103.13514130  .00004258  00000-0  15162-3 0  9998
2 41960  97.3262 172.8952 0005975 316.2823  43.7943 15.29471533231293
1 41960U 17008N   21104.18192668  .00004082  00000-0  14543-3 0  9999
2 41960  97.3259 173.9266 0005907 311.3788  48.6944 15.29479683231457
1 41960U 17008N   21105.42497662  .00005138  00000-0  18228-3 0  9996
2 41960  97.3255 175.1515 0005820 305.8764  54.1936 15.29492623231643
1 41960U 17008N   21105.75209371  .00004907  00000-0  17419-3 0  9994
2 41960  97.3255 175.4739 0005804 304.4884  55.5808 15.29494840231695
1 41960U 17008N   21106.47174954  .00003888  00000-0  13855-3 0  9999
2 41960  97.3253 176.1831 0005768 301.2129  58.8545 15.29498188231806
1 41960U 17008N   21106.66801857  .00003893  00000-0  13874-3 0  9996
2 41960  97.3253 176.3765 0005761 300.2811  59.7859 15.29500074231833
1 41960U 17008N   21107.45309108  .00004767  00000-0  16923-3 0  9995
2 41960  97.3252 177.1502 0005743 296.3077  63.7573 15.29510122231955
1 41960U 17008N   21107.71478032  .00005388  00000-0  19089-3 0  9993
2 41960  97.3250 177.4082 0005750 295.2090  64.8554 15.29515232231992
1 41960U 17008N   21107.91104649  .00006069  00000-0  21464-3 0  9992
2 41960  97.3250 177.6016 0005742 294.2659  65.7982 15.29519557232026
1 41960U 17008N   21108.43442174  .00005995  00000-0  21200-3 0  9993
2 41960  97.3251 178.1174 0005739 291.8578  68.2052 15.29527441232103
1 41960U 17008N   21108.82695115  .00006961  00000-0  24566-3 0  9993
2 41960  97.3250 178.5043 0005731 290.1017  69.9606 15.29536282232165
1 41960U 17008N   21108.89237255  .00006939  00000-0  24488-3 0  9995
2 41960  97.3250 178.5688 0005707 289.8420  70.2205 15.29537260232174
1 41960U 17008N   21109.41574280  .00006613  00000-0  23345-3 0  9996
2 41960  97.3250 179.0845 0005687 287.3992  72.6626 15.29544676232250
1 41960U 17008N   21109.93911031  .00007011  00000-0  24727-3 0  9990
2 41960  97.3250 179.6003 0005685 285.0084  75.0527 15.29552895232335
1 41960U 17008N   21110.20079299  .00007007  00000-0  24709-3 0  9998
2 41960  97.3250 179.8582 0005691 283.7878  76.2729 15.29557030232379
1 41960U 17008N   21110.46247503  .00006792  00000-0  23958-3 0  9996
2 41960  97.3251 180.1160 0005682 282.5100  77.5504 15.29560506232414
1 41960U 17008N   21110.72415659  .00006564  00000-0  23162-3 0  9998
2 41960  97.3251 180.3739 0005688 281.2751  78.7850 15.29564128232457
1 41960U 17008N   21111.18209767  .00006019  00000-0  21257-3 0  9998
2 41960  97.3250 180.8251 0005703 279.2064  80.8531 15.29570006232522
1 41960U 17008N   21111.70545717  .00005582  00000-0  19731-3 0  9992
2 41960  97.3252 181.3409 0005709 276.9613  83.0978 15.29575597232604
1 41960U 17008N   21112.42507346  .00005018  00000-0  17760-3 0  9992
2 41960  97.3253 182.0501 0005681 273.5196  86.5395 15.29582860232718
